NORAD_CAT_ID,OBJECT_NAME,OBJECT_TYPE,EPOCH,MEAN_MOTION,ECCENTRICITY,INCLINATION,RA_OF_ASC_NODE,ARG_OF_PERICENTER,MEAN_ANOMALY,BSTAR,MEAN_MOTION_DOT,MEAN_MOTION_DDOT,TLE_LINE0,TLE_LINE1,TLE_LINE2,SEMIMAJOR_AXIS,PERIOD,APOGEE,PERIGEE,DECAYED
50805.0,STARLINK-3333,PAYLOAD,2023-06-25 23:30:32,15.08839518,0.0001303,53.2159,273.1246,82.8134,277.3007,5.1358e-05,5.3e-06,0.0,0 STARLINK-3333,1 50805U 22001C   23176.97953735  .00000530  00000-0  51358-4 0  9994,2 50805  53.2159 273.1246 0001303  82.8134 277.3007 15.08839518 82704,6917.882,95.438,540.648,538.845,0.0
50805.0,STARLINK-3333,PAYLOAD,2023-06-26 15:24:23,15.08833473,9.92e-05,53.2167,270.1515,84.923,275.1876,2.734e-05,1.47e-06,0.0,0 STARLINK-3333,1 50805U 22001C   23177.64194427  .00000147  00000-0  27340-4 0  9992,2 50805  53.2167 270.1515 0000992  84.9230 275.1876 15.08833473 82807,6917.9,95.438,540.452,539.079,0.0
50805.0,STARLINK-3333,PAYLOAD,2023-06-27 23:12:06,15.08845154,0.0001052,53.2158,264.2038,73.2076,286.9031,0.00048901,7.504e-05,0.0,0 STARLINK-3333,1 50805U 22001C   23178.96674733  .00007504  00000-0  48901-3 0  9990,2 50805  53.2158 264.2038 0001052  73.2076 286.9031 15.08845154 83003,6917.865,95.437,540.457,539.002,0.0
50805.0,STARLINK-3333,PAYLOAD,2023-06-28 23:02:53,15.08845196,0.0001047,53.2161,259.7442,66.0754,294.0347,0.00012121,1.642e-05,0.0,0 STARLINK-3333,1 50805U 22001C   23179.96034374  .00001642  00000-0  12121-3 0  9994,2 50805  53.2161 259.7442 0001047  66.0754 294.0347 15.08845196 83154,6917.865,95.437,540.454,539.005,0.0
50805.0,STARLINK-3333,PAYLOAD,2023-07-01 08:16:46,15.08832323,8.96e-05,53.2157,249.0383,80.8633,279.2461,-1.5538e-05,-5.35e-06,0.0,0 STARLINK-3333,1 50805U 22001C   23182.34498704 -.00000535  00000-0 -15538-4 0  9999,2 50805  53.2157 249.0383 0000896  80.8633 279.2461 15.08832323 83516,6917.904,95.438,540.389,539.149,0.0
50805.0,STARLINK-3333,PAYLOAD,2023-07-01 13:02:57,15.08809776,0.000103,53.2164,248.146,89.3969,270.7141,0.00037787,5.726e-05,0.0,0 STARLINK-3333,1 50805U 22001C   23182.54371683  .00005726  00000-0  37787-3 0  9991,2 50805  53.2164 248.1460 0001030  89.3969 270.7141 15.08809776 83547,6917.973,95.439,540.55,539.125,0.0
50805.0,STARLINK-3333,PAYLOAD,2023-07-02 00:10:38,15.08837236,9.41e-05,53.2161,246.0643,80.5137,279.5961,5.3274e-05,5.6e-06,0.0,0 STARLINK-3333,1 50805U 22001C   23183.00738722  .00000560  00000-0  53274-4 0  9995,2 50805  53.2161 246.0643 0000941  80.5137 279.5961 15.08837236 83611,6917.889,95.438,540.405,539.103,0.0
50805.0,STARLINK-3333,PAYLOAD,2023-07-03 11:09:07,15.08840608,8.91e-05,53.2162,239.5225,87.2291,272.8803,0.00015621,2.199e-05,0.0,0 STARLINK-3333,1 50805U 22001C   23184.46466563  .00002199  00000-0  15621-3 0  9990,2 50805  53.2162 239.5225 0000891  87.2291 272.8803 15.08840608 83836,6917.879,95.438,540.36,539.127,0.0
50805.0,STARLINK-3333,PAYLOAD,2023-07-04 12:35:17,15.08843925,9.34e-05,53.2162,234.765,88.9762,271.1337,6.5717e-05,7.58e-06,0.0,0 STARLINK-3333,1 50805U 22001C   23185.52450605  .00000758  00000-0  65717-4 0  9999,2 50805  53.2162 234.7650 0000934  88.9762 271.1337 15.08843925 83990,6917.868,95.437,540.38,539.087,0.0
50805.0,STARLINK-3333,PAYLOAD,2023-07-04 23:42:59,15.08837752,0.0001007,53.2161,232.6827,84.6513,275.4594,3.7383e-05,3.07e-06,0.0,0 STARLINK-3333,1 50805U 22001C   23185.98819062  .00000307  00000-0  37383-4 0  9993,2 50805  53.2161 232.6827 0001007  84.6513 275.4594 15.08837752 84063,6917.887,95.438,540.449,539.056,0.0
50805.0,STARLINK-3333,PAYLOAD,2023-07-06 02:44:32,15.08839975,9.46e-05,53.2161,227.6272,83.927,276.183,5.25e-05,5.48e-06,0.0,0 STARLINK-3333,1 50805U 22001C   23187.11426989  .00000548  00000-0  52500-4 0  9997,2 50805  53.2161 227.6272 0000946  83.9270 276.1830 15.08839975 84233,6917.88,95.438,540.4,539.091,0.0
50805.0,STARLINK-3333,PAYLOAD,2023-07-07 08:56:52,15.08845157,9.59e-05,53.2159,221.978,79.9673,280.1427,0.00013548,1.869e-05,0.0,0 STARLINK-3333,1 50805U 22001C   23188.37282540  .00001869  00000-0  13548-3 0  9994,2 50805  53.2159 221.9780 0000959  79.9673 280.1427 15.08845157 84424,6917.865,95.437,540.393,539.066,0.0
50805.0,STARLINK-3333,PAYLOAD,2023-07-07 23:15:20,15.08841433,9.76e-05,53.2156,219.3016,79.7399,280.3703,6.1664e-05,6.94e-06,0.0,0 STARLINK-3333,1 50805U 22001C   23188.96898883  .00000694  00000-0  61664-4 0  9990,2 50805  53.2156 219.3016 0000976  79.7399 280.3703 15.08841433 84518,6917.876,95.437,540.416,539.066,0.0
50805.0,STARLINK-3333,PAYLOAD,2023-07-08 18:19:58,15.08836731,9.71e-05,53.2156,215.7327,79.6973,280.4128,-6.2909e-07,-2.98e-06,0.0,0 STARLINK-3333,1 50805U 22001C   23189.76387317 -.00000298  00000-0 -62909-6 0  9991,2 50805  53.2156 215.7327 0000971  79.6973 280.4128 15.08836731 84635,6917.89,95.438,540.427,539.084,0.0
50805.0,STARLINK-3333,PAYLOAD,2023-07-10 02:07:41,15.08833093,9.52e-05,53.2156,209.7856,78.8314,281.2785,4.5412e-05,4.35e-06,0.0,0 STARLINK-3333,1 50805U 22001C   23191.08867679  .00000435  00000-0  45412-4 0  9992,2 50805  53.2156 209.7856 0000952  78.8314 281.2785 15.08833093 84832,6917.902,95.438,540.425,539.108,0.0
50805.0,STARLINK-3333,PAYLOAD,2023-07-11 17:52:20,15.08838851,9.46e-05,53.2159,202.3515,79.8016,280.3083,7.9208e-05,9.73e-06,0.0,0 STARLINK-3333,1 50805U 22001C   23192.74467628  .00000973  00000-0  79208-4 0  9993,2 50805  53.2159 202.3515 0000946  79.8016 280.3083 15.08838851 85085,6917.884,95.438,540.403,539.094,0.0
50805.0,STARLINK-3333,PAYLOAD,2023-07-13 17:33:53,15.0884268,0.0001054,53.216,193.43,78.8703,281.2407,4.8248e-05,4.8e-06,0.0,0 STARLINK-3333,1 50805U 22001C   23194.73187325  .00000480  00000-0  48248-4 0  9990,2 50805  53.2160 193.4300 0001054  78.8703 281.2407 15.08842680 85380,6917.872,95.437,540.466,539.008,0.0
50805.0,STARLINK-3333,PAYLOAD,2023-07-14 23:46:13,15.08841396,0.0001106,53.2156,187.78,82.9381,277.1737,-3.9041e-06,-3.5e-06,0.0,0 STARLINK-3333,1 50805U 22001C   23195.99043524 -.00000350  00000-0 -39041-5 0  9991,2 50805  53.2156 187.7800 0001106  82.9381 277.1737 15.08841396 85576,6917.876,95.437,540.506,538.976,0.0
50805.0,STARLINK-3333,PAYLOAD,2023-07-16 05:58:33,15.08833676,0.0001174,53.2161,182.1302,85.0346,275.078,5.3373e-05,5.62e-06,0.0,0 STARLINK-3333,1 50805U 22001C   23197.24899931  .00000562  00000-0  53373-4 0  9998,2 50805  53.2161 182.1302 0001174  85.0346 275.0780 15.08833676 85766,6917.9,95.438,540.577,538.953,0.0
50805.0,STARLINK-3333,PAYLOAD,2023-07-17 09:00:06,15.08841282,0.0001165,53.2166,177.0753,84.2983,275.8142,6.4867e-05,7.45e-06,0.0,0 STARLINK-3333,1 50805U 22001C   23198.37507683  .00000745  00000-0  64867-4 0  9996,2 50805  53.2166 177.0753 0001165  84.2983 275.8142 15.08841282 85933,6917.876,95.437,540.547,538.936,0.0
50805.0,STARLINK-3333,PAYLOAD,2023-07-17 15:21:38,15.08852044,0.0001191,53.2171,175.8864,85.6212,274.4917,0.00014035,1.947e-05,0.0,0 STARLINK-3333,1 50805U 22001C   23198.64002686  .00001947  00000-0  14035-3 0  9995,2 50805  53.2171 175.8864 0001191  85.6212 274.4917 15.08852044 85974,6917.844,95.437,540.532,538.885,0.0
50805.0,STARLINK-3333,PAYLOAD,2023-07-18 02:29:19,15.08860043,0.0001103,53.2167,173.8045,86.3993,273.7125,0.00024347,3.591e-05,0.0,0 STARLINK-3333,1 50805U 22001C   23199.10369605  .00003591  00000-0  24347-3 0  9998,2 50805  53.2167 173.8045 0001103  86.3993 273.7125 15.08860043 86045,6917.819,95.436,540.447,538.921,0.0
50805.0,STARLINK-3333,PAYLOAD,2023-07-19 02:20:08,15.08825424,0.0001106,53.2171,169.3443,66.2692,293.8416,-6.644e-05,-1.345e-05,0.0,0 STARLINK-3333,1 50805U 22001C   23200.09732413 -.00001345  00000-0 -66440-4 0  9998,2 50805  53.2171 169.3443 0001106  66.2692 293.8416 15.08825424 86194,6917.925,95.438,540.555,539.025,0.0
50805.0,STARLINK-3333,PAYLOAD,2023-07-20 22:50:57,15.08820182,0.0001319,53.2168,161.0204,64.2972,295.8157,0.00013861,1.918e-05,0.0,0 STARLINK-3333,1 50805U 22001C   23201.95205771  .00001918  00000-0  13861-3 0  9998,2 50805  53.2168 161.0204 0001319  64.2972 295.8157 15.08820182 86470,6917.941,95.439,540.718,538.893,0.0
50805.0,STARLINK-3333,PAYLOAD,2023-07-21 03:37:06,15.08835376,0.0001482,53.218,160.126,76.9048,283.211,0.00026959,4.005e-05,0.0,0 STARLINK-3333,1 50805U 22001C   23202.15076668  .00004005  00000-0  26959-3 0  9994,2 50805  53.2180 160.1260 0001482  76.9048 283.2110 15.08835376 86506,6917.895,95.438,540.785,538.734,0.0
50805.0,STARLINK-3333,PAYLOAD,2023-07-23 22:23:18,15.08846073,0.0001744,53.2162,147.6299,95.6731,264.446,-0.00020372,-3.529e-05,0.0,0 STARLINK-3333,1 50805U 22001C   23204.93285275 -.00003529  00000-0 -20372-3 0  9993,2 50805  53.2162 147.6299 0001744  95.6731 264.4460 15.08846073 85656,6917.862,95.437,540.933,538.52,0.0
50805.0,STARLINK-3333,PAYLOAD,2023-07-25 04:35:37,15.08845584,0.0001423,53.2171,141.9858,82.6305,277.4848,6.2463e-05,7.06e-06,0.0,0 STARLINK-3333,1 50805U 22001C   23206.19140531  .00000706  00000-0  62463-4 0  9998,2 50805  53.2171 141.9858 0001423  82.6305 277.4848 15.08845584 85842,6917.863,95.437,540.713,538.744,0.0
50805.0,STARLINK-3333,PAYLOAD,2023-07-26 06:01:48,15.08829404,0.0001264,53.2175,137.2294,82.1843,277.9293,0.00018952,2.729e-05,0.0,0 STARLINK-3333,1 50805U 22001C   23207.25125607  .00002729  00000-0  18952-3 0  9993,2 50805  53.2175 137.2294 0001264  82.1843 277.9293 15.08829404 86004,6917.913,95.438,540.652,538.903,0.0
50805.0,STARLINK-3333,PAYLOAD,2023-07-27 04:17:11,15.08849538,0.0001147,53.217,133.0663,96.5981,263.5142,9.8264e-05,1.277e-05,0.0,0 STARLINK-3333,1 50805U 22001C   23208.17860290  .00001277  00000-0  98264-4 0  9991,2 50805  53.2170 133.0663 0001147  96.5981 263.5142 15.08849538 87415,6917.851,95.437,540.51,538.923,0.0
50805.0,STARLINK-3333,PAYLOAD,2023-07-28 00:57:14,15.08826071,0.0001301,53.2171,129.2026,87.8754,272.2387,-5.306e-05,-1.132e-05,0.0,0 STARLINK-3333,1 50805U 22001C   23209.03974545 -.00001132  00000-0 -53060-4 0  9993,2 50805  53.2171 129.2026 0001301  87.8754 272.2387 15.08826071 87548,6917.923,95.438,540.688,538.888,0.0
